IRIDIUM 8 [+]           
1 24792U 97020A   16080.25287773  .00000232  00000-0  75831-4 0  9993
2 24792  86.3990 148.4738 0002332  98.4432 261.7028 14.34220661988130
IRIDIUM 7 [+]           
1 24793U 97020B   16080.45584026  .00000233  00000-0  76231-4 0  9993
2 24793  86.3996 148.6471 0002319  97.7510 262.3950 14.34220704988169
IRIDIUM 6 [+]           
1 24794U 97020C   16080.44942199  .00000232  00000-0  75831-4 0  9996
2 24794  86.3994 148.5907 0002324  96.0992 264.0469 14.34220592988162
IRIDIUM 5 [+]           
1 24795U 97020D   16080.44315456  .00000275  00000-0  91243-4 0  9999
2 24795  86.3991 148.6379 0002208  96.1525 263.9922 14.34221589988246
IRIDIUM 4 [-]           
1 24796U 97020E   16080.22843667  .00000202  00000-0  63886-4 0  9998
2 24796  86.3987 147.9371 0002334  96.7475 293.3604 14.35061541988207
IRIDIUM 914 [-]         
1 24836U 97030A   16080.30589449  .00000191  00000-0  55740-4 0  9995
2 24836  86.3989 165.8566 0003362 122.2001 237.9523 14.38662623983683
IRIDIUM 12 [+]          
1 24837U 97030B   16080.41020515  .00000258  00000-0  85130-4 0  9992
2 24837  86.4018 179.7756 0002184  99.9607   7.1168 14.34211797981909
IRIDIUM 10 [+]          
1 24839U 97030D   16080.31284581  .00000518  00000-0  17786-3 0  9998
2 24839  86.4015 179.7987 0002210 100.5984 289.6203 14.34211394981901
IRIDIUM 13 [+]          
1 24840U 97030E   16080.32605784  .00000271  00000-0  89709-4 0  9994
2 24840  86.4019 179.9235 0002066 102.5799 257.5628 14.34210348981891
IRIDIUM 16 [-]          
1 24841U 97030F   16080.36293926  .00000160  00000-0  47681-4 0  9990
2 24841  86.4098 180.0560 0001965  32.6136 327.5182 14.36607336982420
IRIDIUM 911 [-]         
1 24842U 97030G   16080.43220430  .00000230  00000-0  60394-4 0  9993
2 24842  86.4524 181.0761 0015739 150.8138 209.3947 14.44833166987420
IRIDIUM 15 [+]          
1 24869U 97034A   16080.39109924  .00000206  00000-0  66529-4 0  9994
2 24869  86.3994 211.4713 0002105  97.2124 286.1569 14.34217649978879
IRIDIUM 17 [-]          
1 24870U 97034B   16080.37861902  .00000209  00000-0  65555-4 0  9996
2 24870  86.4001 210.2651 0000761 122.8466 237.2804 14.35651693979051
IRIDIUM 920 [-]         
1 24871U 97034C   16080.43336676  .00000163  00000-0  45962-4 0  9998
2 24871  86.4028 197.5343 0012876  41.9718 318.2465 14.39384835981070
IRIDIUM 18 [+]          
1 24872U 97034D   16080.55784842  .00000203  00000-0  65529-4 0  9990
2 24872  86.3997 211.6309 0002131  93.5605 266.5834 14.34217619978897
IRIDIUM 921 [-]         
1 24873U 97034E   16080.54558747  .00002141  00000-0  12910-3 0  9991
2 24873  86.3910 280.1740 0005696 235.6087 124.4612 15.10194614 19600
IRIDIUM 26 [-]          
1 24903U 97043A   16080.51316784  .00000214  00000-0  68074-4 0  9997
2 24903  86.3921  84.7544 0002258  85.2854  25.6541 14.35173415972904
IRIDIUM 25 [+]          
1 24904U 97043B   16080.50606861  .00000049  00000-0  10332-4 0  9995
2 24904  86.3917  85.1174 0002307  86.7015 273.4444 14.34216842972797
IRIDIUM 46 [+]          
1 24905U 97043C   16080.51875257  .00000054  00000-0  12059-4 0  9998
2 24905  86.3925  85.6247 0002368  88.5807 271.5660 14.34216981972804
IRIDIUM 23 [S]          
1 24906U 97043D   16080.53405595  .00000048  00000-0  99357-5 0  9995
2 24906  86.3930  85.0849 0002436  88.2818  23.5635 14.34216995972811
IRIDIUM 22 [+]          
1 24907U 97043E   16080.48710314  .00000114  00000-0  33715-4 0  9997
2 24907  86.3927  85.7419 0002322  89.0677 271.0785 14.34216632972795
DUMMY MASS 1 [-]        
1 24925U 97048A   16079.90629288  .00000210  00000-0  21327-4 0  9999
2 24925  86.3321 252.7969 0006269 189.0686 171.0426 14.85060215  3925
DUMMY MASS 2 [-]        
1 24926U 97048B   16080.54789535  .00000210  00000-0  21442-4 0  9992
2 24926  86.3321 253.5424 0006844 196.7362 163.3637 14.84829088  4116
IRIDIUM 29 [-]          
1 24944U 97051A   16080.52859776  .00000183  00000-0  57873-4 0  9995
2 24944  86.3938 116.6755 0002406  98.6036 261.5433 14.34562273969383
IRIDIUM 32 [+]          
1 24945U 97051B   16080.51584538  .00000070  00000-0  17910-4 0  9999
2 24945  86.3939 116.7947 0002391  94.2819 265.8650 14.34218894969399
IRIDIUM 33 [-]          
1 24946U 97051C   16080.53658165  .00000151  00000-0  47434-4 0  9994
2 24946  86.3853 116.6445 0005699 285.2500  74.8065 14.33474938969042
IRIDIUM 28 [-]          
1 24948U 97051E   16080.55230690  .00000191  00000-0  59789-4 0  9997
2 24948  86.3942 116.1547 0002101  83.8350 276.3085 14.35460036969497
IRIDIUM 30 [+]          
1 24949U 97051F   16080.50949064  .00000064  00000-0  15628-4 0  9998
2 24949  86.3940 116.8861 0002430  92.5979 267.5495 14.34219931969370
IRIDIUM 31 [+]          
1 24950U 97051G   16080.50314142  .00000069  00000-0  17448-4 0  9990
2 24950  86.3940 116.8893 0002307  96.9357 263.2101 14.34220257969389
IRIDIUM 19 [+]          
1 24965U 97056A   16080.20847868  .00000231  00000-0  75261-4 0  9992
2 24965  86.3992 148.5003 0002298  97.8069 262.3388 14.34220754967484
IRIDIUM 35 [+]          
1 24966U 97056B   16080.50023688  .00000225  00000-0  73165-4 0  9996
2 24966  86.3991 148.3757 0002289  97.0023 263.1433 14.34221031967502
IRIDIUM 36 [-]          
1 24967U 97056C   16080.50355500  .00000191  00000-0  59704-4 0  9993
2 24967  86.4001 147.7877 0002212  99.3547 260.7900 14.35508159967775
IRIDIUM 37 [+]          
1 24968U 97056D   16080.54463377  .00000237  00000-0  77715-4 0  9993
2 24968  86.3994 148.5301 0002330  98.8923 261.2537 14.34221083967511
IRIDIUM 34 [+]          
1 24969U 97056E   16080.21484099  .00000233  00000-0  76059-4 0  9998
2 24969  86.3994 148.6052 0002266  97.9806 262.1647 14.34218414967464
IRIDIUM 43 [+]          
1 25039U 97069A   16080.48175390  .00000261  00000-0  86205-4 0  9996
2 25039  86.4001 211.5789 0002064 100.4750 259.6678 14.34220331961284
IRIDIUM 41 [+]          
1 25040U 97069B   16080.41175046  .00000216  00000-0  70041-4 0  9990
2 25040  86.3996 211.5796 0002154  92.1149 299.6227 14.34217460961277
IRIDIUM 40 [+]          
1 25041U 97069C   16080.43102297  .00000232  00000-0  75679-4 0  9991
2 25041  86.3997 211.7902 0001990 126.2045 233.9335 14.34218306961294
IRIDIUM 39 [+]          
1 25042U 97069D   16080.43735662  .00000220  00000-0  71476-4 0  9998
2 25042  86.4010 211.8437 0002204  91.5958 268.5491 14.34218835961274
IRIDIUM 38 [-]          
1 25043U 97069E   16080.51642162  .00000174  00000-0  53128-4 0  9992
2 25043  86.4001 209.2629 0001680  58.7826 301.3535 14.35929695961623
IRIDIUM 42 [-]          
1 25077U 97077A   16080.50608474  .00000044  00000-0  85187-5 0  9992
2 25077  86.4000 211.5607 0001996  91.5625 268.5800 14.34463251957155
IRIDIUM 44 [-]          
1 25078U 97077B   16080.54258782  .00000259  00000-0  78990-4 0  9991
2 25078  86.4011 202.2465 0001415  42.3756 317.7551 14.38007714958436
IRIDIUM 45 [+]          
1 25104U 97082A   16080.49679164  .00000069  00000-0  17525-4 0  9998
2 25104  86.3938 116.9357 0002214  59.7337 300.4077 14.34220373955342
IRIDIUM 24 [-]          
1 25105U 97082B   16080.50107367  .00000231  00000-0  67408-4 0  9998
2 25105  86.3895  67.0260 0013258  46.6325 313.5975 14.39747394957577
IRIDIUM 47 [+]          
1 25106U 97082C   16080.52509009  .00000037  00000-0  60242-5 0  9994
2 25106  86.3913  84.9951 0002439  88.1621 271.9854 14.34217241955336
IRIDIUM 49 [+]          
1 25108U 97082E   16080.55972438  .00000049  00000-0  10354-4 0  9990
2 25108  86.3917  85.0714 0002360  87.8831  25.5509 14.34217011955350
IRIDIUM 52 [+]          
1 25169U 98010A   16080.42753739  .00000036  00000-0  59634-5 0  9997
2 25169  86.4017 180.0422 0002020  98.8417 261.3007 14.34211177946749
IRIDIUM 56 [+]          
1 25170U 98010B   16080.49096706  .00000270  00000-0  89460-4 0  9999
2 25170  86.4034 180.1179 0002197  91.2791 268.8656 14.34211433946733
IRIDIUM 54 [+]          
1 25171U 98010C   16080.52267693  .00000284  00000-0  94252-4 0  9999
2 25171  86.4023 180.0212 0002157  99.7531 260.3908 14.34211838946905
IRIDIUM 50 [+]          
1 25172U 98010D   16080.57127390  .00000202  00000-0  65128-4 0  9994
2 25172  86.4022 179.9598 0002239 101.4604 345.8067 14.34211751946743
IRIDIUM 53 [+]          
1 25173U 98010E   16080.36411070  .00000281  00000-0  93154-4 0  9990
2 25173  86.4023 180.0520 0002171  99.8034 260.3407 14.34211746946726
IRIDIUM 51 [S]          
1 25262U 98018A   16080.37972582  .00000262  00000-0  86543-4 0  9991
2 25262  86.4004 148.7156 0002472  98.5491 261.5984 14.34220964946115
IRIDIUM 61 [+]          
1 25263U 98018B   16080.55098037  .00000229  00000-0  74661-4 0  9997
2 25263  86.3993 148.4940 0002324  96.9634 263.1826 14.34220619941842
IRIDIUM 55 [+]          
1 25272U 98019A   16080.55387462  .00000063  00000-0  15531-4 0  9998
2 25272  86.3939 116.6902 0002355  93.1218 267.0247 14.34219089941049
IRIDIUM 57 [+]          
1 25273U 98019B   16080.52851296  .00000061  00000-0  14854-4 0  9992
2 25273  86.3942 116.9882 0002365  93.1627 266.9839 14.34219874941046
IRIDIUM 58 [+]          
1 25274U 98019C   16080.53485659  .00000064  00000-0  15836-4 0  9994
2 25274  86.3946 117.1699 0002425  92.3483 267.7990 14.34219696941047
IRIDIUM 59 [+]          
1 25275U 98019D   16080.54119959  .00000071  00000-0  18299-4 0  9997
2 25275  86.3940 117.0449 0002410  95.9141 264.2329 14.34219260941043
IRIDIUM 60 [+]          
1 25276U 98019E   16080.54753861  .00000062  00000-0  15033-4 0  9997
2 25276  86.3937 116.6795 0002333  93.1520 266.9942 14.34219775941045
IRIDIUM 62 [+]          
1 25285U 98021A   16080.50898365  .00000079  00000-0  21175-4 0  9997
2 25285  86.3952  53.5620 0002361  84.9334 275.2131 14.34217453939995
IRIDIUM 63 [-]          
1 25286U 98021B   16080.52618870  .00000213  00000-0  68606-4 0  9991
2 25286  86.3978  53.9328 0002348  92.6227  46.1823 14.34572847940003
IRIDIUM 64 [+]          
1 25287U 98021C   16080.45189945  .00000079  00000-0  21045-4 0  9996
2 25287  86.3951  53.6245 0002088  86.8278 273.3157 14.34217344939967
